start=new Date('2022-05-31T00:00:00.000Z').valueOf();
sats=[{"EPOCH":"2022-05-30T12:37:24.072384","PERIOD":"95.593","MEAN_MOTION_DDOT":"0.0000000000000","MEAN_ELEMENT_THEORY":"SGP4","RA_OF_ASC_NODE":"327.9175","NORAD_CAT_ID":"47835","ECCENTRICITY":"0.00012690","RCS_SIZE":"LARGE","EPHEMERIS_TYPE":"0","TIME_SYSTEM":"UTC","APOAPSIS":"548.144","INCLINATION":"53.0555","COUNTRY_CODE":"US","ELEMENT_SET_NO":"999","MEAN_ANOMALY":"290.8322","LAUNCH_DATE":"2021-03-11","OBJECT_TYPE":"PAYLOAD","TLE_LINE1":"1 47835U 21018BA  22150.52597306 -.00002303  00000-0 -13580-3 0  9996","PERIAPSIS":"546.387","SITE":"AFETR","CLASSIFICATION_TYPE":"U","OBJECT_ID":"2021-018BA","OBJECT_NAME":"STARLINK-2425","TLE_LINE2":"2 47835  53.0555 327.9175 0001269  69.2802 290.8322 15.06383071 68319","BSTAR":"-0.00013580000000","REV_AT_EPOCH":"6831","DECAY_DATE":null,"MEAN_MOTION_DOT":"-0.00002303","REF_FRAME":"TEME","GP_ID":"204945728","CENTER_NAME":"EARTH","FILE":"3472576","SEMIMAJOR_AXIS":"6925.400","MEAN_MOTION":"15.06383071","ARG_OF_PERICENTER":"69.2802"},{"PERIOD":"95.656","EPOCH":"2022-05-30T20:29:43.095264","NORAD_CAT_ID":"47836","RA_OF_ASC_NODE":"321.4763","ECCENTRICITY":"0.00026430","MEAN_ELEMENT_THEORY":"SGP4","MEAN_MOTION_DDOT":"0.0000000000000","INCLINATION":"53.0556","COUNTRY_CODE":"US","TIME_SYSTEM":"UTC","APOAPSIS":"552.108","LAUNCH_DATE":"2021-03-11","OBJECT_TYPE":"PAYLOAD","ELEMENT_SET_NO":"999","MEAN_ANOMALY":"344.6937","RCS_SIZE":"LARGE","EPHEMERIS_TYPE":"0","PERIAPSIS":"548.445","TLE_LINE1":"1 47836U 21018BB  22150.85397101 -.00104332  00000-0 -72819-2 0  9998","SITE":"AFETR","CLASSIFICATION_TYPE":"U","BSTAR":"-0.00728190000000","TLE_LINE2":"2 47836  53.0556 321.4763 0002643  15.4132 344.6937 15.05401222 68430","OBJECT_ID":"2021-018BB","OBJECT_NAME":"STARLINK-2426","REF_FRAME":"TEME","GP_ID":"204949969","DECAY_DATE":null,"REV_AT_EPOCH":"6843","MEAN_MOTION_DOT":"-0.00104332","FILE":"3472698","CENTER_NAME":"EARTH","ARG_OF_PERICENTER":"15.4132","SEMIMAJOR_AXIS":"6928.411","MEAN_MOTION":"15.05401222"},{"GP_ID":"204949560","REF_FRAME":"TEME","MEAN_MOTION_DOT":"-0.00001176","REV_AT_EPOCH":"6871","DECAY_DATE":null,"BSTAR":"-0.00006003800000","TLE_LINE2":"2 47837  53.0548 301.6829 0001860  48.6547 311.4602 15.06395328 68715","OBJECT_NAME":"STARLINK-2427","OBJECT_ID":"2021-018BC","ARG_OF_PERICENTER":"48.6547","MEAN_MOTION":"15.06395328","SEMIMAJOR_AXIS":"6925.363","FILE":"3472698","CENTER_NAME":"EARTH","ECCENTRICITY":"0.00018600","RA_OF_ASC_NODE":"301.6829","NORAD_CAT_ID":"47837","MEAN_MOTION_DDOT":"0.0000000000000","MEAN_ELEMENT_THEORY":"SGP4","EPOCH":"2022-05-30T19:17:29.826816","PERIOD":"95.592","SITE":"AFETR","CLASSIFICATION_TYPE":"U","TLE_LINE1":"1 47837U 21018BC  22150.80381744 -.00001176  00000-0 -60038-4 0  9994","PERIAPSIS":"545.940","ELEMENT_SET_NO":"999","MEAN_ANOMALY":"311.4602","LAUNCH_DATE":"2021-03-11","OBJECT_TYPE":"PAYLOAD","TIME_SYSTEM":"UTC","APOAPSIS":"548.516","INCLINATION":"53.0548","COUNTRY_CODE":"US","EPHEMERIS_TYPE":"0","RCS_SIZE":"LARGE"},{"SEMIMAJOR_AXIS":"6925.353","MEAN_MOTION":"15.06398521","ARG_OF_PERICENTER":"48.8872","CENTER_NAME":"EARTH","FILE":"3472994","REV_AT_EPOCH":"6875","DECAY_DATE":null,"MEAN_MOTION_DOT":"-0.00000638","REF_FRAME":"TEME","GP_ID":"204978531","OBJECT_ID":"2021-018BD","OBJECT_NAME":"STARLINK-2429","TLE_LINE2":"2 47838  53.0559 321.9231 0001897  48.8872 311.2280 15.06398521 68755","BSTAR":"-0.00002393700000","TLE_LINE1":"1 47838U 21018BD  22150.75037143 -.00000638  00000-0 -23937-4 0  9999","PERIAPSIS":"545.904","CLASSIFICATION_TYPE":"U","SITE":"AFETR","RCS_SIZE":"LARGE","EPHEMERIS_TYPE":"0","TIME_SYSTEM":"UTC","APOAPSIS":"548.532","INCLINATION":"53.0559","COUNTRY_CODE":"US","MEAN_ANOMALY":"311.2280","ELEMENT_SET_NO":"999","LAUNCH_DATE":"2021-03-11","OBJECT_TYPE":"PAYLOAD","MEAN_ELEMENT_THEORY":"SGP4","MEAN_MOTION_DDOT":"0.0000000000000","RA_OF_ASC_NODE":"321.9231","NORAD_CAT_ID":"47838","ECCENTRICITY":"0.00018970","EPOCH":"2022-05-30T18:00:32.091552","PERIOD":"95.592"},{"MEAN_MOTION_DDOT":"0.0000000000000","MEAN_ELEMENT_THEORY":"SGP4","RA_OF_ASC_NODE":"292.6703","NORAD_CAT_ID":"47839","ECCENTRICITY":"0.00016060","EPOCH":"2022-05-30T13:55:02.399232","PERIOD":"95.592","TLE_LINE1":"1 47839U 21018BE  22150.57988888 -.00000454  00000-0 -11611-4 0  9993","PERIAPSIS":"546.101","CLASSIFICATION_TYPE":"U","SITE":"AFETR","RCS_SIZE":"LARGE","EPHEMERIS_TYPE":"0","APOAPSIS":"548.325","TIME_SYSTEM":"UTC","INCLINATION":"53.0553","COUNTRY_CODE":"US","MEAN_ANOMALY":"287.1309","ELEMENT_SET_NO":"999","LAUNCH_DATE":"2021-03-11","OBJECT_TYPE":"PAYLOAD","REV_AT_EPOCH":"6916","DECAY_DATE":null,"MEAN_MOTION_DOT":"-0.00000454","REF_FRAME":"TEME","GP_ID":"204976784","OBJECT_ID":"2021-018BE","OBJECT_NAME":"STARLINK-2431","TLE_LINE2":"2 47839  53.0553 292.6703 0001606  72.9856 287.1309 15.06400154 69161","BSTAR":"-0.00001161100000","SEMIMAJOR_AXIS":"6925.348","MEAN_MOTION":"15.06400154","ARG_OF_PERICENTER":"72.9856","CENTER_NAME":"EARTH","FILE":"3472994"},{"REV_AT_EPOCH":"6904","DECAY_DATE":null,"MEAN_MOTION_DOT":"-0.00002628","GP_ID":"204977533","REF_FRAME":"TEME","OBJECT_ID":"2021-018BF","OBJECT_NAME":"STARLINK-2432","BSTAR":"-0.00015764000000","TLE_LINE2":"2 47840  53.0566 301.7519 0001839  66.5822 293.5360 15.06385179 69048","SEMIMAJOR_AXIS":"6925.394","MEAN_MOTION":"15.06385179","ARG_OF_PERICENTER":"66.5822","CENTER_NAME":"EARTH","FILE":"3472994","MEAN_ELEMENT_THEORY":"SGP4","MEAN_MOTION_DDOT":"0.0000000000000","RA_OF_ASC_NODE":"301.7519","NORAD_CAT_ID":"47840","ECCENTRICITY":"0.00018390","EPOCH":"2022-05-30T18:56:16.710720","PERIOD":"95.593","TLE_LINE1":"1 47840U 21018BF  22150.78908230 -.00002628  00000-0 -15764-3 0  9998","PERIAPSIS":"545.985","CLASSIFICATION_TYPE":"U","SITE":"AFETR","RCS_SIZE":"LARGE","EPHEMERIS_TYPE":"0","APOAPSIS":"548.533","TIME_SYSTEM":"UTC","COUNTRY_CODE":"US","INCLINATION":"53.0566","ELEMENT_SET_NO":"999","MEAN_ANOMALY":"293.5360","LAUNCH_DATE":"2021-03-11","OBJECT_TYPE":"PAYLOAD"},{"PERIAPSIS":"546.094","TLE_LINE1":"1 47841U 21018BG  22150.85174561 -.00001665  00000-0 -92905-4 0  9992","SITE":"AFETR","CLASSIFICATION_TYPE":"U","INCLINATION":"53.0563","COUNTRY_CODE":"US","APOAPSIS":"548.419","TIME_SYSTEM":"UTC","OBJECT_TYPE":"PAYLOAD","LAUNCH_DATE":"2021-03-11","MEAN_ANOMALY":"278.9792","ELEMENT_SET_NO":"999","RCS_SIZE":"LARGE","EPHEMERIS_TYPE":"0","NORAD_CAT_ID":"47841","RA_OF_ASC_NODE":"301.4679","ECCENTRICITY":"0.00016790","MEAN_MOTION_DDOT":"0.0000000000000","MEAN_ELEMENT_THEORY":"SGP4","PERIOD":"95.593","EPOCH":"2022-05-30T20:26:30.820704","ARG_OF_PERICENTER":"81.1387","SEMIMAJOR_AXIS":"6925.391","MEAN_MOTION":"15.06386029","FILE":"3472994","CENTER_NAME":"EARTH","GP_ID":"204977782","REF_FRAME":"TEME","DECAY_DATE":null,"REV_AT_EPOCH":"6905","MEAN_MOTION_DOT":"-0.00001665","BSTAR":"-0.00009290500000","TLE_LINE2":"2 47841  53.0563 301.4679 0001679  81.1387 278.9792 15.06386029 69053","OBJECT_ID":"2021-018BG","OBJECT_NAME":"STARLINK-2433"},{"MEAN_ELEMENT_THEORY":"SGP4","MEAN_MOTION_DDOT":"0.0000000000000","ECCENTRICITY":"0.00014500","NORAD_CAT_ID":"47842","RA_OF_ASC_NODE":"331.8244","PERIOD":"95.593","EPOCH":"2022-05-30T18:31:03.862272","CLASSIFICATION_TYPE":"U","SITE":"AFETR","PERIAPSIS":"546.262","TLE_LINE1":"1 47842U 21018BH  22150.77157248 -.00001437  00000-0 -77617-4 0  9997","EPHEMERIS_TYPE":"0","RCS_SIZE":"LARGE","LAUNCH_DATE":"2021-03-11","OBJECT_TYPE":"PAYLOAD","ELEMENT_SET_NO":"999","MEAN_ANOMALY":"288.0301","COUNTRY_CODE":"US","INCLINATION":"53.0540","TIME_SYSTEM":"UTC","APOAPSIS":"548.271","MEAN_MOTION_DOT":"-0.00001437","DECAY_DATE":null,"REV_AT_EPOCH":"6867","REF_FRAME":"TEME","GP_ID":"204978032","OBJECT_NAME":"STARLINK-2434","OBJECT_ID":"2021-018BH","BSTAR":"-0.00007761700000","TLE_LINE2":"2 47842  53.0540 331.8244 0001450  72.0846 288.0301 15.06382675 68678","MEAN_MOTION":"15.06382675","SEMIMAJOR_AXIS":"6925.402","ARG_OF_PERICENTER":"72.0846","CENTER_NAME":"EARTH","FILE":"3472994"},{"ECCENTRICITY":"0.00017990","NORAD_CAT_ID":"47843","RA_OF_ASC_NODE":"326.9547","MEAN_MOTION_DDOT":"0.0000000000000","MEAN_ELEMENT_THEORY":"SGP4","PERIOD":"95.593","EPOCH":"2022-05-30T17:51:55.610496","CLASSIFICATION_TYPE":"U","SITE":"AFETR","PERIAPSIS":"546.030","TLE_LINE1":"1 47843U 21018BJ  22150.74439364 -.00002885  00000-0 -17492-3 0  9999","OBJECT_TYPE":"PAYLOAD","LAUNCH_DATE":"2021-03-11","ELEMENT_SET_NO":"999","MEAN_ANOMALY":"310.0892","COUNTRY_CODE":"US","INCLINATION":"53.0556","APOAPSIS":"548.522","TIME_SYSTEM":"UTC","EPHEMERIS_TYPE":"0","RCS_SIZE":"LARGE","REF_FRAME":"TEME","GP_ID":"204977284","MEAN_MOTION_DOT":"-0.00002885","DECAY_DATE":null,"REV_AT_EPOCH":"6870","BSTAR":"-0.00017492000000","TLE_LINE2":"2 47843  53.0556 326.9547 0001799  50.0255 310.0892 15.06379651 68708","OBJECT_NAME":"STARLINK-2435","OBJECT_ID":"2021-018BJ","ARG_OF_PERICENTER":"50.0255","MEAN_MOTION":"15.06379651","SEMIMAJOR_AXIS":"6925.411","FILE":"3472994","CENTER_NAME":"EARTH"},{"EPOCH":"2022-05-30T21:00:59.943456","PERIOD":"95.593","RA_OF_ASC_NODE":"321.3670","NORAD_CAT_ID":"47844","ECCENTRICITY":"0.00014900","MEAN_ELEMENT_THEORY":"SGP4","MEAN_MOTION_DDOT":"0.0000000000000","APOAPSIS":"548.267","TIME_SYSTEM":"UTC","COUNTRY_CODE":"US","INCLINATION":"53.0551","ELEMENT_SET_NO":"999","MEAN_ANOMALY":"300.2640","OBJECT_TYPE":"PAYLOAD","LAUNCH_DATE":"2021-03-11","RCS_SIZE":"LARGE","EPHEMERIS_TYPE":"0","TLE_LINE1":"1 47844U 21018BK  22150.87569379 -.00001578  00000-0 -87083-4 0  9996","PERIAPSIS":"546.204","SITE":"AFETR","CLASSIFICATION_TYPE":"U","BSTAR":"-0.00008708300000","TLE_LINE2":"2 47844  53.0551 321.3670 0001490  59.8497 300.2640 15.06392825 68770","OBJECT_ID":"2021-018BK","OBJECT_NAME":"STARLINK-2446","GP_ID":"204977034","REF_FRAME":"TEME","REV_AT_EPOCH":"6877","DECAY_DATE":null,"MEAN_MOTION_DOT":"-0.00001578","FILE":"3472994","CENTER_NAME":"EARTH","ARG_OF_PERICENTER":"59.8497","SEMIMAJOR_AXIS":"6925.371","MEAN_MOTION":"15.06392825"}];
